SL-16 R/B               
1 22285U 92093B   25311.12578449  .00000241  00000+0  14798-3 0  9992
2 22285  71.0204 261.5534 0003176 164.5960 195.5260 14.15419322695818
COSMOS 2228             
1 22286U 92094A   25311.18793853  .00002833  00000+0  24659-3 0  9994
2 22286  82.5193 354.5472 0017942 359.6848   0.4360 14.96483635757737
SL-16 R/B               
1 22566U 93016B   25310.87128084 -.00000103  00000+0 -28178-4 0  9994
2 22566  71.0047 113.1343 0009387 162.4669 197.6779 14.15278142684794
COSMOS 2242             
1 22626U 93024A   25311.18582071  .00002521  00000+0  22269-3 0  9993
2 22626  82.5221  23.8175 0016364   2.6576 357.4729 14.95883138762071
SL-16 R/B               
1 22803U 93059B   25311.15867153  .00000004  00000+0  25709-4 0  9999
2 22803  70.9891 269.5146 0015832  30.0902 330.1128 14.17202091662174
ARIANE 40 R/B           
1 22830U 93061H   25311.14246053  .00000341  00000+0  14099-3 0  9994
2 22830  98.5120  17.3130 0009624 288.5317  71.4821 14.32766456676558
COSMOS 2278             
1 23087U 94023A   25310.74888736  .00000204  00000+0  13150-3 0  9998
2 23087  71.0525  72.3049 0010293 225.6526 134.3754 14.14332621627425
SL-16 R/B               
1 23088U 94023B   25311.13437876 -.00000101  00000+0 -27289-4 0  9995
2 23088  71.0005 328.2610 0001698 174.4259 185.6883 14.14993086628756
SL-16 R/B               
1 23343U 94074B   25311.09426684  .00000647  00000+0  93777-4 0  9993
2 23343  97.7249 341.8077 0005142 258.2287 160.2568 14.79225462669125
SL-16 R/B               
1 23405U 94077B   25311.16379278  .00000277  00000+0  16596-3 0  9991
2 23405  70.9819 250.2533 0003650 312.9623  47.1193 14.15540229598897
ARIANE 40+ R/B          
1 23561U 95021B   25311.15291375  .00000449  00000+0  15748-3 0  9993
2 23561  98.4692  19.1648 0007511 142.3499 281.2570 14.39651714601612
SL-16 R/B               
1 23705U 95058B   25310.74068462  .00000184  00000+0  11825-3 0  9994
2 23705  71.0212  78.3802 0014519 301.9683  58.0028 14.15475053550457
