CCSDS_OMM_VERS = 2.0
CREATION_DATE  = 
ORIGINATOR     = 

OBJECT_NAME    = SL-16 R/B
OBJECT_ID      = 1992-093B
CENTER_NAME    = EARTH
REF_FRAME      = TEME
TIME_SYSTEM    = UTC
MEAN_ELEMENT_THEORY = SGP/SGP4

EPOCH          = 2025-11-07T03:01:07.779936
MEAN_MOTION    = 14.15419322
ECCENTRICITY   = .0003176
INCLINATION    = 71.0204
RA_OF_ASC_NODE = 261.5534
ARG_OF_PERICENTER = 164.5960
MEAN_ANOMALY   = 195.5260

EPHEMERIS_TYPE = 0
CLASSIFICATION_TYPE = U
NORAD_CAT_ID   = 22285
ELEMENT_SET_NO = 999
REV_AT_EPOCH   = 69581
BSTAR          = .14798E-3
MEAN_MOTION_DOT = .241E-5
MEAN_MOTION_DDOT = 0

CCSDS_OMM_VERS = 2.0
CREATION_DATE  = 
ORIGINATOR     = 

OBJECT_NAME    = COSMOS 2228
OBJECT_ID      = 1992-094A
CENTER_NAME    = EARTH
REF_FRAME      = TEME
TIME_SYSTEM    = UTC
MEAN_ELEMENT_THEORY = SGP/SGP4

EPOCH          = 2025-11-07T04:30:37.888992
MEAN_MOTION    = 14.96483635
ECCENTRICITY   = .0017942
INCLINATION    = 82.5193
RA_OF_ASC_NODE = 354.5472
ARG_OF_PERICENTER = 359.6848
MEAN_ANOMALY   = 0.4360

EPHEMERIS_TYPE = 0
CLASSIFICATION_TYPE = U
NORAD_CAT_ID   = 22286
ELEMENT_SET_NO = 999
REV_AT_EPOCH   = 75773
BSTAR          = .24659E-3
MEAN_MOTION_DOT = .2833E-4
MEAN_MOTION_DDOT = 0

CCSDS_OMM_VERS = 2.0
CREATION_DATE  = 
ORIGINATOR     = 

OBJECT_NAME    = SL-16 R/B
OBJECT_ID      = 1993-016B
CENTER_NAME    = EARTH
REF_FRAME      = TEME
TIME_SYSTEM    = UTC
MEAN_ELEMENT_THEORY = SGP/SGP4

EPOCH          = 2025-11-06T20:54:38.664576
MEAN_MOTION    = 14.15278142
ECCENTRICITY   = .0009387
INCLINATION    = 71.0047
RA_OF_ASC_NODE = 113.1343
ARG_OF_PERICENTER = 162.4669
MEAN_ANOMALY   = 197.6779

EPHEMERIS_TYPE = 0
CLASSIFICATION_TYPE = U
NORAD_CAT_ID   = 22566
ELEMENT_SET_NO = 999
REV_AT_EPOCH   = 68479
BSTAR          = -.28178E-4
MEAN_MOTION_DOT = -.103E-5
MEAN_MOTION_DDOT = 0

CCSDS_OMM_VERS = 2.0
CREATION_DATE  = 
ORIGINATOR     = 

OBJECT_NAME    = COSMOS 2242
OBJECT_ID      = 1993-024A
CENTER_NAME    = EARTH
REF_FRAME      = TEME
TIME_SYSTEM    = UTC
MEAN_ELEMENT_THEORY = SGP/SGP4

EPOCH          = 2025-11-07T04:27:34.909344
MEAN_MOTION    = 14.95883138
ECCENTRICITY   = .0016364
INCLINATION    = 82.5221
RA_OF_ASC_NODE = 23.8175
ARG_OF_PERICENTER = 2.6576
MEAN_ANOMALY   = 357.4729

EPHEMERIS_TYPE = 0
CLASSIFICATION_TYPE = U
NORAD_CAT_ID   = 22626
ELEMENT_SET_NO = 999
REV_AT_EPOCH   = 76207
BSTAR          = .22269E-3
MEAN_MOTION_DOT = .2521E-4
MEAN_MOTION_DDOT = 0

CCSDS_OMM_VERS = 2.0
CREATION_DATE  = 
ORIGINATOR     = 

OBJECT_NAME    = SL-16 R/B
OBJECT_ID      = 1993-059B
CENTER_NAME    = EARTH
REF_FRAME      = TEME
TIME_SYSTEM    = UTC
MEAN_ELEMENT_THEORY = SGP/SGP4

EPOCH          = 2025-11-07T03:48:29.220192
MEAN_MOTION    = 14.17202091
ECCENTRICITY   = .0015832
INCLINATION    = 70.9891
RA_OF_ASC_NODE = 269.5146
ARG_OF_PERICENTER = 30.0902
MEAN_ANOMALY   = 330.1128

EPHEMERIS_TYPE = 0
CLASSIFICATION_TYPE = U
NORAD_CAT_ID   = 22803
ELEMENT_SET_NO = 999
REV_AT_EPOCH   = 66217
BSTAR          = .25709E-4
MEAN_MOTION_DOT = .4E-7
MEAN_MOTION_DDOT = 0

CCSDS_OMM_VERS = 2.0
CREATION_DATE  = 
ORIGINATOR     = 

OBJECT_NAME    = ARIANE 40 R/B
OBJECT_ID      = 1993-061H
CENTER_NAME    = EARTH
REF_FRAME      = TEME
TIME_SYSTEM    = UTC
MEAN_ELEMENT_THEORY = SGP/SGP4

EPOCH          = 2025-11-07T03:25:08.589792
MEAN_MOTION    = 14.32766456
ECCENTRICITY   = .0009624
INCLINATION    = 98.5120
RA_OF_ASC_NODE = 17.3130
ARG_OF_PERICENTER = 288.5317
MEAN_ANOMALY   = 71.4821

EPHEMERIS_TYPE = 0
CLASSIFICATION_TYPE = U
NORAD_CAT_ID   = 22830
ELEMENT_SET_NO = 999
REV_AT_EPOCH   = 67655
BSTAR          = .14099E-3
MEAN_MOTION_DOT = .341E-5
MEAN_MOTION_DDOT = 0

CCSDS_OMM_VERS = 2.0
CREATION_DATE  = 
ORIGINATOR     = 

OBJECT_NAME    = COSMOS 2278
OBJECT_ID      = 1994-023A
CENTER_NAME    = EARTH
REF_FRAME      = TEME
TIME_SYSTEM    = UTC
MEAN_ELEMENT_THEORY = SGP/SGP4

EPOCH          = 2025-11-06T17:58:23.867904
MEAN_MOTION    = 14.14332621
ECCENTRICITY   = .00102938
INCLINATION    = 71.0525
RA_OF_ASC_NODE = 72.3049
ARG_OF_PERICENTER = 225.6526
MEAN_ANOMALY   = 134.3754

EPHEMERIS_TYPE = 0
CLASSIFICATION_TYPE = U
NORAD_CAT_ID   = 23087
ELEMENT_SET_NO = 999
REV_AT_EPOCH   = 62742
BSTAR          = .13149744E-3
MEAN_MOTION_DOT = .204E-5
MEAN_MOTION_DDOT = 0

CCSDS_OMM_VERS = 2.0
CREATION_DATE  = 
ORIGINATOR     = 

OBJECT_NAME    = SL-16 R/B
OBJECT_ID      = 1994-023B
CENTER_NAME    = EARTH
REF_FRAME      = TEME
TIME_SYSTEM    = UTC
MEAN_ELEMENT_THEORY = SGP/SGP4

EPOCH          = 2025-11-07T03:13:30.324864
MEAN_MOTION    = 14.14993086
ECCENTRICITY   = .0001698
INCLINATION    = 71.0005
RA_OF_ASC_NODE = 328.2610
ARG_OF_PERICENTER = 174.4259
MEAN_ANOMALY   = 185.6883

EPHEMERIS_TYPE = 0
CLASSIFICATION_TYPE = U
NORAD_CAT_ID   = 23088
ELEMENT_SET_NO = 999
REV_AT_EPOCH   = 62875
BSTAR          = -.27289E-4
MEAN_MOTION_DOT = -.101E-5
MEAN_MOTION_DDOT = 0

CCSDS_OMM_VERS = 2.0
CREATION_DATE  = 
ORIGINATOR     = 

OBJECT_NAME    = SL-16 R/B
OBJECT_ID      = 1994-074B
CENTER_NAME    = EARTH
REF_FRAME      = TEME
TIME_SYSTEM    = UTC
MEAN_ELEMENT_THEORY = SGP/SGP4

EPOCH          = 2025-11-07T02:15:44.654976
MEAN_MOTION    = 14.79225462
ECCENTRICITY   = .0005142
INCLINATION    = 97.7249
RA_OF_ASC_NODE = 341.8077
ARG_OF_PERICENTER = 258.2287
MEAN_ANOMALY   = 160.2568

EPHEMERIS_TYPE = 0
CLASSIFICATION_TYPE = U
NORAD_CAT_ID   = 23343
ELEMENT_SET_NO = 999
REV_AT_EPOCH   = 66912
BSTAR          = .93777E-4
MEAN_MOTION_DOT = .647E-5
MEAN_MOTION_DDOT = 0

CCSDS_OMM_VERS = 2.0
CREATION_DATE  = 
ORIGINATOR     = 

OBJECT_NAME    = SL-16 R/B
OBJECT_ID      = 1994-077B
CENTER_NAME    = EARTH
REF_FRAME      = TEME
TIME_SYSTEM    = UTC
MEAN_ELEMENT_THEORY = SGP/SGP4

EPOCH          = 2025-11-07T03:55:51.696192
MEAN_MOTION    = 14.15540229
ECCENTRICITY   = .000365
INCLINATION    = 70.9819
RA_OF_ASC_NODE = 250.2533
ARG_OF_PERICENTER = 312.9623
MEAN_ANOMALY   = 47.1193

EPHEMERIS_TYPE = 0
CLASSIFICATION_TYPE = U
NORAD_CAT_ID   = 23405
ELEMENT_SET_NO = 999
REV_AT_EPOCH   = 59889
BSTAR          = .16596E-3
MEAN_MOTION_DOT = .277E-5
MEAN_MOTION_DDOT = 0

CCSDS_OMM_VERS = 2.0
CREATION_DATE  = 
ORIGINATOR     = 

OBJECT_NAME    = ARIANE 40+ R/B
OBJECT_ID      = 1995-021B
CENTER_NAME    = EARTH
REF_FRAME      = TEME
TIME_SYSTEM    = UTC
MEAN_ELEMENT_THEORY = SGP/SGP4

EPOCH          = 2025-11-07T03:40:11.748000
MEAN_MOTION    = 14.39651714
ECCENTRICITY   = .0007511
INCLINATION    = 98.4692
RA_OF_ASC_NODE = 19.1648
ARG_OF_PERICENTER = 142.3499
MEAN_ANOMALY   = 281.2570

EPHEMERIS_TYPE = 0
CLASSIFICATION_TYPE = U
NORAD_CAT_ID   = 23561
ELEMENT_SET_NO = 999
REV_AT_EPOCH   = 60161
BSTAR          = .15748E-3
MEAN_MOTION_DOT = .449E-5
MEAN_MOTION_DDOT = 0

CCSDS_OMM_VERS = 2.0
CREATION_DATE  = 
ORIGINATOR     = 

OBJECT_NAME    = SL-16 R/B
OBJECT_ID      = 1995-058B
CENTER_NAME    = EARTH
REF_FRAME      = TEME
TIME_SYSTEM    = UTC
MEAN_ELEMENT_THEORY = SGP/SGP4

EPOCH          = 2025-11-06T17:46:35.151168
MEAN_MOTION    = 14.15475053
ECCENTRICITY   = .00145195
INCLINATION    = 71.0212
RA_OF_ASC_NODE = 78.3802
ARG_OF_PERICENTER = 301.9683
MEAN_ANOMALY   = 58.0028

EPHEMERIS_TYPE = 0
CLASSIFICATION_TYPE = U
NORAD_CAT_ID   = 23705
ELEMENT_SET_NO = 999
REV_AT_EPOCH   = 55045
BSTAR          = .11824967E-3
MEAN_MOTION_DOT = .184E-5
MEAN_MOTION_DDOT = 0

